[{"OBJECT_NAME":"SL-16 R/B","OBJECT_ID":"1993-059B","EPOCH":"2026-04-14T06:16:35.325408","MEAN_MOTION":14.17239267,"ECCENTRICITY":0.00164154,"INCLINATION":70.9896,"RA_OF_ASC_NODE":296.1131,"ARG_OF_PERICENTER":163.2913,"MEAN_ANOMALY":196.8756,"EPHEMERIS_TYPE":0,"CLASSIFICATION_TYPE":"U","NORAD_CAT_ID":22803,"ELEMENT_SET_NO":999,"REV_AT_EPOCH":68457,"BSTAR":3.9813087e-5,"MEAN_MOTION_DOT":3.3e-7,"MEAN_MOTION_DDOT":0},{"OBJECT_NAME":"ARIANE 40 R/B","OBJECT_ID":"1993-061H","EPOCH":"2026-04-14T04:08:03.333120","MEAN_MOTION":14.32880052,"ECCENTRICITY":0.00109676,"INCLINATION":98.4856,"RA_OF_ASC_NODE":172.3484,"ARG_OF_PERICENTER":173.0296,"MEAN_ANOMALY":187.1043,"EPHEMERIS_TYPE":0,"CLASSIFICATION_TYPE":"U","NORAD_CAT_ID":22830,"ELEMENT_SET_NO":999,"REV_AT_EPOCH":69918,"BSTAR":5.8097772e-5,"MEAN_MOTION_DOT":1.16e-6,"MEAN_MOTION_DDOT":0},{"OBJECT_NAME":"COSMOS 2278","OBJECT_ID":"1994-023A","EPOCH":"2026-04-14T05:49:07.439808","MEAN_MOTION":14.14379174,"ECCENTRICITY":0.00097447,"INCLINATION":71.0507,"RA_OF_ASC_NODE":100.7137,"ARG_OF_PERICENTER":322.8796,"MEAN_ANOMALY":37.1652,"EPHEMERIS_TYPE":0,"CLASSIFICATION_TYPE":"U","NORAD_CAT_ID":23087,"ELEMENT_SET_NO":999,"REV_AT_EPOCH":64983,"BSTAR":0.00019498532,"MEAN_MOTION_DOT":3.26e-6,"MEAN_MOTION_DDOT":0},{"OBJECT_NAME":"SL-16 R/B","OBJECT_ID":"1994-023B","EPOCH":"2026-04-14T03:09:18.236448","MEAN_MOTION":14.150193,"ECCENTRICITY":0.00056118,"INCLINATION":71.0025,"RA_OF_ASC_NODE":356.4578,"ARG_OF_PERICENTER":255.1957,"MEAN_ANOMALY":104.8544,"EPHEMERIS_TYPE":0,"CLASSIFICATION_TYPE":"U","NORAD_CAT_ID":23088,"ELEMENT_SET_NO":999,"REV_AT_EPOCH":65110,"BSTAR":-8.8680375e-5,"MEAN_MOTION_DOT":-2.19e-6,"MEAN_MOTION_DDOT":0},{"OBJECT_NAME":"SL-16 R/B","OBJECT_ID":"1994-074B","EPOCH":"2026-04-14T02:23:46.464576","MEAN_MOTION":14.79448022,"ECCENTRICITY":0.00080737,"INCLINATION":97.7055,"RA_OF_ASC_NODE":133.4749,"ARG_OF_PERICENTER":103.6059,"MEAN_ANOMALY":322.5814,"EPHEMERIS_TYPE":0,"CLASSIFICATION_TYPE":"U","NORAD_CAT_ID":23343,"ELEMENT_SET_NO":999,"REV_AT_EPOCH":69248,"BSTAR":4.0727013e-5,"MEAN_MOTION_DOT":2.55e-6,"MEAN_MOTION_DDOT":0},{"OBJECT_NAME":"SL-16 R/B","OBJECT_ID":"1994-077B","EPOCH":"2026-04-14T04:04:42.438432","MEAN_MOTION":14.1556676,"ECCENTRICITY":0.00011217,"INCLINATION":70.9811,"RA_OF_ASC_NODE":277.8436,"ARG_OF_PERICENTER":163.3499,"MEAN_ANOMALY":196.7661,"EPHEMERIS_TYPE":0,"CLASSIFICATION_TYPE":"U","NORAD_CAT_ID":23405,"ELEMENT_SET_NO":999,"REV_AT_EPOCH":62125,"BSTAR":7.5368781e-5,"MEAN_MOTION_DOT":1.0e-6,"MEAN_MOTION_DDOT":0},{"OBJECT_NAME":"ARIANE 40+ R/B","OBJECT_ID":"1995-021B","EPOCH":"2026-04-14T04:21:51.412320","MEAN_MOTION":14.39797923,"ECCENTRICITY":0.00074282,"INCLINATION":98.4442,"RA_OF_ASC_NODE":175.173,"ARG_OF_PERICENTER":44.6996,"MEAN_ANOMALY":335.4456,"EPHEMERIS_TYPE":0,"CLASSIFICATION_TYPE":"U","NORAD_CAT_ID":23561,"ELEMENT_SET_NO":999,"REV_AT_EPOCH":62435,"BSTAR":6.3144795e-5,"MEAN_MOTION_DOT":1.55e-6,"MEAN_MOTION_DDOT":0},{"OBJECT_NAME":"SL-16 R/B","OBJECT_ID":"1995-058B","EPOCH":"2026-04-13T18:06:42.376032","MEAN_MOTION":14.15501863,"ECCENTRICITY":0.00105868,"INCLINATION":71.0189,"RA_OF_ASC_NODE":106.6369,"ARG_OF_PERICENTER":61.4557,"MEAN_ANOMALY":298.763,"EPHEMERIS_TYPE":0,"CLASSIFICATION_TYPE":"U","NORAD_CAT_ID":23705,"ELEMENT_SET_NO":999,"REV_AT_EPOCH":57281,"BSTAR":0.00018734378,"MEAN_MOTION_DOT":3.19e-6,"MEAN_MOTION_DDOT":0},{"OBJECT_NAME":"SL-16 R/B","OBJECT_ID":"1996-051B","EPOCH":"2026-04-14T05:20:12.986592","MEAN_MOTION":14.12425119,"ECCENTRICITY":0.00126716,"INCLINATION":70.7581,"RA_OF_ASC_NODE":100.0293,"ARG_OF_PERICENTER":87.8841,"MEAN_ANOMALY":272.373,"EPHEMERIS_TYPE":0,"CLASSIFICATION_TYPE":"U","NORAD_CAT_ID":24298,"ELEMENT_SET_NO":999,"REV_AT_EPOCH":52666,"BSTAR":5.3859368e-5,"MEAN_MOTION_DOT":5.0e-7,"MEAN_MOTION_DDOT":0},{"OBJECT_NAME":"ORBVIEW 2 (SEASTAR)","OBJECT_ID":"1997-037A","EPOCH":"2026-04-14T04:11:35.846016","MEAN_MOTION":14.35519817,"ECCENTRICITY":0.00015387,"INCLINATION":98.8626,"RA_OF_ASC_NODE":269.4381,"ARG_OF_PERICENTER":343.2503,"MEAN_ANOMALY":16.863,"EPHEMERIS_TYPE":0,"CLASSIFICATION_TYPE":"U","NORAD_CAT_ID":24883,"ELEMENT_SET_NO":999,"REV_AT_EPOCH":51356,"BSTAR":7.0701097e-5,"MEAN_MOTION_DOT":1.57e-6,"MEAN_MOTION_DDOT":0},{"OBJECT_NAME":"SL-16 R/B","OBJECT_ID":"1998-043G","EPOCH":"2026-04-14T03:56:08.132928","MEAN_MOTION":14.26058018,"ECCENTRICITY":0.0008745,"INCLINATION":98.8311,"RA_OF_ASC_NODE":57.7922,"ARG_OF_PERICENTER":272.3274,"MEAN_ANOMALY":87.6904,"EPHEMERIS_TYPE":0,"CLASSIFICATION_TYPE":"U","NORAD_CAT_ID":25400,"ELEMENT_SET_NO":999,"REV_AT_EPOCH":44404,"BSTAR":2.7787468e-5,"MEAN_MOTION_DOT":2.1e-7,"MEAN_MOTION_DDOT":0},{"OBJECT_NAME":"SL-16 R/B","OBJECT_ID":"1998-045B","EPOCH":"2026-04-14T05:49:36.084000","MEAN_MOTION":14.16198501,"ECCENTRICITY":0.00088345,"INCLINATION":71.009,"RA_OF_ASC_NODE":106.8067,"ARG_OF_PERICENTER":317.7373,"MEAN_ANOMALY":42.3069,"EPHEMERIS_TYPE":0,"CLASSIFICATION_TYPE":"U","NORAD_CAT_ID":25407,"ELEMENT_SET_NO":999,"REV_AT_EPOCH":43213,"BSTAR":9.5616455e-5,"MEAN_MOTION_DOT":1.42e-6,"MEAN_MOTION_DDOT":0},{"OBJECT_NAME":"ISS (ZARYA)","OBJECT_ID":"1998-067A","EPOCH":"2026-04-14T03:13:55.563168","MEAN_MOTION":15.48905907,"ECCENTRICITY":0.00065556,"INCLINATION":51.6322,"RA_OF_ASC_NODE":257.0967,"ARG_OF_PERICENTER":310.1862,"MEAN_ANOMALY":49.8552,"EPHEMERIS_TYPE":0,"CLASSIFICATION_TYPE":"U","NORAD_CAT_ID":25544,"ELEMENT_SET_NO":999,"REV_AT_EPOCH":56182,"BSTAR":0.00010597226,"MEAN_MOTION_DOT":5.375e-5,"MEAN_MOTION_DDOT":0},{"OBJECT_NAME":"CZ-4B R/B","OBJECT_ID":"1999-025C","EPOCH":"2026-04-14T03:24:33.125184","MEAN_MOTION":14.18272346,"ECCENTRICITY":0.00361122,"INCLINATION":98.6557,"RA_OF_ASC_NODE":147.5718,"ARG_OF_PERICENTER":242.0387,"MEAN_ANOMALY":132.3618,"EPHEMERIS_TYPE":0,"CLASSIFICATION_TYPE":"U","NORAD_CAT_ID":25732,"ELEMENT_SET_NO":999,"REV_AT_EPOCH":39319,"BSTAR":3.276789e-5,"MEAN_MOTION_DOT":2.5e-7,"MEAN_MOTION_DDOT":0},{"OBJECT_NAME":"OKEAN-O","OBJECT_ID":"1999-039A","EPOCH":"2026-04-14T03:18:26.271648","MEAN_MOTION":14.80391391,"ECCENTRICITY":0.00011635,"INCLINATION":97.9373,"RA_OF_ASC_NODE":163.656,"ARG_OF_PERICENTER":114.6005,"MEAN_ANOMALY":245.5328,"EPHEMERIS_TYPE":0,"CLASSIFICATION_TYPE":"U","NORAD_CAT_ID":25860,"ELEMENT_SET_NO":999,"REV_AT_EPOCH":43963,"BSTAR":5.2532099e-5,"MEAN_MOTION_DOT":3.49e-6,"MEAN_MOTION_DDOT":0},{"OBJECT_NAME":"SL-16 R/B","OBJECT_ID":"1999-039B","EPOCH":"2026-04-14T03:38:47.850144","MEAN_MOTION":14.81780172,"ECCENTRICITY":0.00157358,"INCLINATION":97.9896,"RA_OF_ASC_NODE":163.1822,"ARG_OF_PERICENTER":138.6475,"MEAN_ANOMALY":221.5932,"EPHEMERIS_TYPE":0,"CLASSIFICATION_TYPE":"U","NORAD_CAT_ID":25861,"ELEMENT_SET_NO":999,"REV_AT_EPOCH":44211,"BSTAR":4.5243254e-5,"MEAN_MOTION_DOT":3.04e-6,"MEAN_MOTION_DDOT":0},{"OBJECT_NAME":"DELTA 2 R/B","OBJECT_ID":"1999-041E","EPOCH":"2026-04-14T02:52:08.331168","MEAN_MOTION":14.11915717,"ECCENTRICITY":0.05025558,"INCLINATION":51.7598,"RA_OF_ASC_NODE":159.7426,"ARG_OF_PERICENTER":92.9067,"MEAN_ANOMALY":272.947,"EPHEMERIS_TYPE":0,"CLASSIFICATION_TYPE":"U","NORAD_CAT_ID":25876,"ELEMENT_SET_NO":999,"REV_AT_EPOCH":36803,"BSTAR":0.00011360378,"MEAN_MOTION_DOT":4.56e-6,"MEAN_MOTION_DDOT":0}]
