SL-16 R/B               
1 22803U 93059B   26104.26151997  .00000033  00000+0  39813-4 0  9997
2 22803  70.9896 296.1131 0016415 163.2913 196.8756 14.17239267684575
ARIANE 40 R/B           
1 22830U 93061H   26104.17226080  .00000116  00000+0  58098-4 0  9994
2 22830  98.4856 172.3484 0010967 173.0296 187.1043 14.32880052699187
COSMOS 2278             
1 23087U 94023A   26104.24244722  .00000326  00000+0  19499-3 0  9993
2 23087  71.0507 100.7137 0009744 322.8796  37.1652 14.14379174649837
SL-16 R/B               
1 23088U 94023B   26104.13146107 -.00000219  00000+0 -88680-4 0  9992
2 23088  71.0025 356.4578 0005611 255.1957 104.8544 14.15019300651106
SL-16 R/B               
1 23343U 94074B   26104.09984334  .00000255  00000+0  40727-4 0  9997
2 23343  97.7055 133.4749 0008073 103.6059 322.5814 14.79448022692488
SL-16 R/B               
1 23405U 94077B   26104.16993563  .00000100  00000+0  75369-4 0  9990
2 23405  70.9811 277.8436 0001121 163.3499 196.7661 14.15566760621252
ARIANE 40+ R/B          
1 23561U 95021B   26104.18184505  .00000155  00000+0  63145-4 0  9992
2 23561  98.4442 175.1730 0007428  44.6996 335.4456 14.39797923624357
SL-16 R/B               
1 23705U 95058B   26103.75465713  .00000319  00000+0  18734-3 0  9992
2 23705  71.0189 106.6369 0010586  61.4557 298.7630 14.15501863572816
SL-16 R/B               
1 24298U 96051B   26104.22237253  .00000050  00000+0  53859-4 0  9993
2 24298  70.7581 100.0293 0012671  87.8841 272.3730 14.12425119526662
ORBVIEW 2 (SEASTAR)     
1 24883U 97037A   26104.17472044  .00000157  00000+0  70701-4 0  9994
2 24883  98.8626 269.4381 0001538 343.2503  16.8630 14.35519817513564
SL-16 R/B               
1 25400U 98043G   26104.16398302  .00000021  00000+0  27787-4 0  9997
2 25400  98.8311  57.7922 0008745 272.3274  87.6904 14.26058018444041
SL-16 R/B               
1 25407U 98045B   26104.24277875  .00000142  00000+0  95616-4 0  9996
2 25407  71.0090 106.8067 0008834 317.7373  42.3069 14.16198501432132
ISS (ZARYA)             
1 25544U 98067A   26104.13467087  .00005375  00000+0  10597-3 0  9993
2 25544  51.6322 257.0967 0006555 310.1862  49.8552 15.48905907561822
CZ-4B R/B               
1 25732U 99025C   26104.14205006  .00000025  00000+0  32768-4 0  9991
2 25732  98.6557 147.5718 0036112 242.0387 132.3618 14.18272346393190
OKEAN-O                 
1 25860U 99039A   26104.13780407  .00000349  00000+0  52532-4 0  9990
2 25860  97.9373 163.6560 0001163 114.6005 245.5328 14.80391391439639
SL-16 R/B               
1 25861U 99039B   26104.15194271  .00000304  00000+0  45243-4 0  9993
2 25861  97.9896 163.1822 0015735 138.6475 221.5932 14.81780172442115
DELTA 2 R/B             
1 25876U 99041E   26104.11954087  .00000456  00000+0  11360-3 0  9997
2 25876  51.7598 159.7426 0502555  92.9067 272.9470 14.11915717368032
